[{"OBJECT_NAME":"MARAFON-D GVM","OBJECT_ID":"2024-039V","EPOCH":"2026-03-09T22:15:16.896096","MEAN_MOTION":14.45961623,"ECCENTRICITY":0.00149761,"INCLINATION":88.9816,"RA_OF_ASC_NODE":295.8376,"ARG_OF_PERICENTER":319.0552,"MEAN_ANOMALY":40.9527,"EPHEMERIS_TYPE":0,"CLASSIFICATION_TYPE":"U","NORAD_CAT_ID":59072,"ELEMENT_SET_NO":999,"REV_AT_EPOCH":10684,"BSTAR":8.0103078e-5,"MEAN_MOTION_DOT":3.0e-6,"MEAN_MOTION_DDOT":0},{"OBJECT_NAME":"IRIDIUM 33 DEB","OBJECT_ID":"1997-051GC","EPOCH":"2026-03-09T04:29:47.501376","MEAN_MOTION":14.43379604,"ECCENTRICITY":0.00298618,"INCLINATION":86.3478,"RA_OF_ASC_NODE":335.1765,"ARG_OF_PERICENTER":201.1988,"MEAN_ANOMALY":311.7943,"EPHEMERIS_TYPE":0,"CLASSIFICATION_TYPE":"U","NORAD_CAT_ID":34487,"ELEMENT_SET_NO":999,"REV_AT_EPOCH":89495,"BSTAR":0.00022730241,"MEAN_MOTION_DOT":7.91e-6,"MEAN_MOTION_DDOT":0}]
